CRE (WAAS/PRN 138)      
1 28868U 05036A   22116.67639378 -.00000088  00000+0  00000+0 0  9992
2 28868   0.4306  93.5903 0003158 306.9579 310.2895  1.00271900 31284
IOR-W (EGNOS/PRN 126)   
1 28899U 05044A   22116.85604904 -.00000002  00000+0  00000+0 0  9998
2 28899   3.4661  36.9170 0002767  15.8413 174.1265  1.00271676 60358
QZS-1 (QZSS/PRN 183)    
1 37158U 10045A   22116.35700347 -.00000078  00000+0  00000+0 0  9999
2 37158  42.2782 134.1030 0755924 270.3201  81.5151  1.00271309 42572
GSAT-8 (GAGAN/PRN 127)  
1 37605U 11022A   22116.85222556  .00000070  00000+0  00000+0 0  9999
2 37605   0.0166 188.6572 0004358 122.8379 265.2106  1.00272931 40073
LUCH 5A (SDCM/PRN 140)  
1 37951U 11074B   22116.91141343 -.00000055  00000+0  00000+0 0  9995
2 37951   4.8897  98.6496 0004916 316.1347 295.2074  1.00273451 38025
SES-5 (EGNOS/PRN 136)   
1 38652U 12036A   22116.98575649  .00000020  00000+0  00000+0 0  9991
2 38652   0.0558 291.9084 0001985 109.0613 173.8294  1.00271989 35908
GSAT-10 (GAGAN/PRN 128) 
1 38779U 12051B   22116.74523611 -.00000179  00000+0  00000+0 0  9990
2 38779   0.0535 103.1731 0000486  71.1259  31.6847  1.00270950 34952
LUCH 5B (SDCM/PRN 125)  
1 38977U 12061A   22117.09788198 -.00000144  00000+0  00000+0 0  9995
2 38977   7.1822  62.9862 0004192  10.7505 160.2423  1.00270872 35017
ASTRA 5B (EGNOS/PRN 123)
1 39617U 14011B   22116.84751576  .00000140  00000+0  00000+0 0  9991
2 39617   0.0562 310.4391 0002841  99.3835 141.5912  1.00273480 29508
LUCH 5V (SDCM/PRN 141)  
1 39727U 14023A   22116.89076951 -.00000282  00000+0  00000+0 0  9996
2 39727   1.3801  74.4546 0003404   2.3507 193.5047  1.00272218 29194
GSAT-15 (GAGAN/PRN 139) 
1 41028U 15065A   22116.89076951 -.00000272  00000+0  00000+0 0  9999
2 41028   0.0690  94.5880 0003152 343.9548 190.4737  1.00270070 23691
E 117 W B (WAAS/PRN 131)
1 41589U 16038B   22116.62244631 -.00000026  00000+0  00000+0 0  9992
2 41589   0.0090 101.2008 0000117 168.7821  51.6981  1.00270612 21509
SES-15 (WAAS/PRN 133)   
1 42709U 17026A   22116.67203287  .00000046  00000+0  00000+0 0  9993
2 42709   0.0273  59.1606 0000890 315.2267 313.0325  1.00265890 19015
QZS-2 (QZSS/PRN 184)    
1 42738U 17028A   22116.73452045 -.00000259  00000+0  00000+0 0  9999
2 42738  41.8601 264.8960 0741517 270.6548  81.6010  1.00252209 17980
QZS-3 (QZSS/PRN 189)    
1 42917U 17048A   22116.86661654 -.00000362  00000+0  00000+0 0  9997
2 42917   0.0607 155.6235 0002217 257.3826 240.7500  1.00277007 17099
QZS-4 (QZSS/PRN 185)    
1 42965U 17062A   22116.47208757 -.00000353  00000+0  00000+0 0  9994
2 42965  40.7789   2.7778 0747243 270.5980 249.7645  1.00266739 16640
